QIANFAN-89              
1 63175U 25046S   25334.95232399  .00000118  00000+0  16429-3 0  9992
2 63175  88.9754 321.2584 0017106 153.6025 206.6001 13.50972789 45811
QIANFAN-90              
1 63176U 25046T   25334.98107777  .00000025  00000+0  19644-4 0  9997
2 63176  88.9754 321.2279 0014111 150.5919 209.6029 13.50974659 45837
QIANFAN-91              
1 66033U 25233A   25334.64586853  .00000432  00000+0  28433-3 0  9996
2 66033  88.9964  63.4631 0018694  74.6529 285.6714 13.99927455  6292
QIANFAN-92              
1 66034U 25233B   25334.79292174  .00000329  00000+0  21707-3 0  9995
2 66034  89.0019  63.4476 0018821  74.4194 285.9060 13.99296053  6314
QIANFAN-93              
1 66035U 25233C   25334.71629956  .00000142  00000+0  89777-4 0  9995
2 66035  88.9994  63.4853 0019730  77.5743 282.7641 13.98100175  6305
QIANFAN-94              
1 66036U 25233D   25334.71511450  .00000373  00000+0  24144-3 0  9997
2 66036  88.9918  63.4661 0014426  88.0487 272.2344 14.00618017  6305
QIANFAN-95              
1 66037U 25233E   25334.76331869  .00000602  00000+0  27413-3 0  9994
2 66037  88.9973  63.4110 0015753  81.9646 278.3331 14.20401576  6337
QIANFAN-96              
1 66038U 25233F   25334.94949949  .00000325  00000+0  22191-3 0  9999
2 66038  88.9965  63.4419 0018607  78.0394 282.2868 13.97225192  6339
